IRIDIUM 921             
1 24873U 97034E   25018.43127373  .00352005  00000+0  14364-2 0  9997
2 24873  86.3639 178.9039 0002784 327.3125  32.7980 15.85270090508900
IRIDIUM 26              
1 24903U 97043A   25018.47941151  .00000879  00000+0  29068-3 0  9990
2 24903  86.3996 173.4519 0001831  96.9213 263.2193 14.36918345435714
IRIDIUM 22              
1 24907U 97043E   25018.49580338  .00000814  00000+0  27505-3 0  9995
2 24907  86.3998 176.8506 0002036  92.4614 267.6816 14.35756839435286
DUMMY MASS 1            
1 24925U 97048A   25018.47450076  .00000823  00000+0  89395-4 0  9999
2 24925  86.3348 204.4815 0005443 336.3763  23.7210 14.86739017483126
DUMMY MASS 2            
1 24926U 97048B   25018.47909441  .00000816  00000+0  89179-4 0  9997
2 24926  86.3348 206.0587 0006664 346.8804  13.2246 14.86493142482903
IRIDIUM 29              
1 24944U 97051A   25017.94292583  .00000809  00000+0  27062-3 0  9998
2 24944  86.3960 206.8450 0002140  85.7977 274.3464 14.36222281431708
IRIDIUM 33              
1 24946U 97051C   25017.90269256  .00000531  00000+0  18080-3 0  9999
2 24946  86.3876 206.1112 0007129 194.4847 165.6146 14.34725268431193
IRIDIUM 28              
1 24948U 97051E   25018.50111508  .00000731  00000+0  23928-3 0  9993
2 24948  86.3969 204.2132 0001803 102.0783 258.0616 14.37164195432410
