<?xml version="1.0" encoding="UTF-8"?>
<ndm xmlns:xsi="http://www.w3.org/2001/XMLSchema-instance" xsi:noNamespaceSchemaLocation="https://sanaregistry.org/r/ndmxml_unqualified/ndmxml-2.0.0-master-2.0.xsd">
<omm id="CCSDS_OMM_VERS" version="2.0">
<header><CREATION_DATE/><ORIGINATOR/></header><body><segment><metadata><OBJECT_NAME>IRIDIUM 921</OBJECT_NAME><OBJECT_ID>1997-034E</OBJECT_ID><CENTER_NAME>EARTH</CENTER_NAME><REF_FRAME>TEME</REF_FRAME><TIME_SYSTEM>UTC</TIME_SYSTEM><MEAN_ELEMENT_THEORY>SGP4</MEAN_ELEMENT_THEORY></metadata><data><meanElements><EPOCH>2025-01-18T10:21:02.050272</EPOCH><MEAN_MOTION>15.85270090</MEAN_MOTION><ECCENTRICITY>.0002784</ECCENTRICITY><INCLINATION>86.3639</INCLINATION><RA_OF_ASC_NODE>178.9039</RA_OF_ASC_NODE><ARG_OF_PERICENTER>327.3125</ARG_OF_PERICENTER><MEAN_ANOMALY>32.7980</MEAN_ANOMALY></meanElements><tleParameters><EPHEMERIS_TYPE>0</EPHEMERIS_TYPE><CLASSIFICATION_TYPE>U</CLASSIFICATION_TYPE><NORAD_CAT_ID>24873</NORAD_CAT_ID><ELEMENT_SET_NO>999</ELEMENT_SET_NO><REV_AT_EPOCH>50890</REV_AT_EPOCH><BSTAR>.14364E-2</BSTAR><MEAN_MOTION_DOT>.352005E-2</MEAN_MOTION_DOT><MEAN_MOTION_DDOT>0</MEAN_MOTION_DDOT></tleParameters></data></segment></body></omm>
<omm id="CCSDS_OMM_VERS" version="2.0">
<header><CREATION_DATE/><ORIGINATOR/></header><body><segment><metadata><OBJECT_NAME>IRIDIUM 26</OBJECT_NAME><OBJECT_ID>1997-043A</OBJECT_ID><CENTER_NAME>EARTH</CENTER_NAME><REF_FRAME>TEME</REF_FRAME><TIME_SYSTEM>UTC</TIME_SYSTEM><MEAN_ELEMENT_THEORY>SGP4</MEAN_ELEMENT_THEORY></metadata><data><meanElements><EPOCH>2025-01-18T11:30:21.154464</EPOCH><MEAN_MOTION>14.36918345</MEAN_MOTION><ECCENTRICITY>.0001831</ECCENTRICITY><INCLINATION>86.3996</INCLINATION><RA_OF_ASC_NODE>173.4519</RA_OF_ASC_NODE><ARG_OF_PERICENTER>96.9213</ARG_OF_PERICENTER><MEAN_ANOMALY>263.2193</MEAN_ANOMALY></meanElements><tleParameters><EPHEMERIS_TYPE>0</EPHEMERIS_TYPE><CLASSIFICATION_TYPE>U</CLASSIFICATION_TYPE><NORAD_CAT_ID>24903</NORAD_CAT_ID><ELEMENT_SET_NO>999</ELEMENT_SET_NO><REV_AT_EPOCH>43571</REV_AT_EPOCH><BSTAR>.29068E-3</BSTAR><MEAN_MOTION_DOT>.879E-5</MEAN_MOTION_DOT><MEAN_MOTION_DDOT>0</MEAN_MOTION_DDOT></tleParameters></data></segment></body></omm>
<omm id="CCSDS_OMM_VERS" version="2.0">
<header><CREATION_DATE/><ORIGINATOR/></header><body><segment><metadata><OBJECT_NAME>IRIDIUM 22</OBJECT_NAME><OBJECT_ID>1997-043E</OBJECT_ID><CENTER_NAME>EARTH</CENTER_NAME><REF_FRAME>TEME</REF_FRAME><TIME_SYSTEM>UTC</TIME_SYSTEM><MEAN_ELEMENT_THEORY>SGP4</MEAN_ELEMENT_THEORY></metadata><data><meanElements><EPOCH>2025-01-18T11:53:57.412032</EPOCH><MEAN_MOTION>14.35756839</MEAN_MOTION><ECCENTRICITY>.0002036</ECCENTRICITY><INCLINATION>86.3998</INCLINATION><RA_OF_ASC_NODE>176.8506</RA_OF_ASC_NODE><ARG_OF_PERICENTER>92.4614</ARG_OF_PERICENTER><MEAN_ANOMALY>267.6816</MEAN_ANOMALY></meanElements><tleParameters><EPHEMERIS_TYPE>0</EPHEMERIS_TYPE><CLASSIFICATION_TYPE>U</CLASSIFICATION_TYPE><NORAD_CAT_ID>24907</NORAD_CAT_ID><ELEMENT_SET_NO>999</ELEMENT_SET_NO><REV_AT_EPOCH>43528</REV_AT_EPOCH><BSTAR>.27505E-3</BSTAR><MEAN_MOTION_DOT>.814E-5</MEAN_MOTION_DOT><MEAN_MOTION_DDOT>0</MEAN_MOTION_DDOT></tleParameters></data></segment></body></omm>
<omm id="CCSDS_OMM_VERS" version="2.0">
<header><CREATION_DATE/><ORIGINATOR/></header><body><segment><metadata><OBJECT_NAME>DUMMY MASS 1</OBJECT_NAME><OBJECT_ID>1997-048A</OBJECT_ID><CENTER_NAME>EARTH</CENTER_NAME><REF_FRAME>TEME</REF_FRAME><TIME_SYSTEM>UTC</TIME_SYSTEM><MEAN_ELEMENT_THEORY>SGP4</MEAN_ELEMENT_THEORY></metadata><data><meanElements><EPOCH>2025-01-18T11:23:16.865664</EPOCH><MEAN_MOTION>14.86739017</MEAN_MOTION><ECCENTRICITY>.0005443</ECCENTRICITY><INCLINATION>86.3348</INCLINATION><RA_OF_ASC_NODE>204.4815</RA_OF_ASC_NODE><ARG_OF_PERICENTER>336.3763</ARG_OF_PERICENTER><MEAN_ANOMALY>23.7210</MEAN_ANOMALY></meanElements><tleParameters><EPHEMERIS_TYPE>0</EPHEMERIS_TYPE><CLASSIFICATION_TYPE>U</CLASSIFICATION_TYPE><NORAD_CAT_ID>24925</NORAD_CAT_ID><ELEMENT_SET_NO>999</ELEMENT_SET_NO><REV_AT_EPOCH>48312</REV_AT_EPOCH><BSTAR>.89395E-4</BSTAR><MEAN_MOTION_DOT>.823E-5</MEAN_MOTION_DOT><MEAN_MOTION_DDOT>0</MEAN_MOTION_DDOT></tleParameters></data></segment></body></omm>
<omm id="CCSDS_OMM_VERS" version="2.0">
<header><CREATION_DATE/><ORIGINATOR/></header><body><segment><metadata><OBJECT_NAME>DUMMY MASS 2</OBJECT_NAME><OBJECT_ID>1997-048B</OBJECT_ID><CENTER_NAME>EARTH</CENTER_NAME><REF_FRAME>TEME</REF_FRAME><TIME_SYSTEM>UTC</TIME_SYSTEM><MEAN_ELEMENT_THEORY>SGP4</MEAN_ELEMENT_THEORY></metadata><data><meanElements><EPOCH>2025-01-18T11:29:53.757024</EPOCH><MEAN_MOTION>14.86493142</MEAN_MOTION><ECCENTRICITY>.0006664</ECCENTRICITY><INCLINATION>86.3348</INCLINATION><RA_OF_ASC_NODE>206.0587</RA_OF_ASC_NODE><ARG_OF_PERICENTER>346.8804</ARG_OF_PERICENTER><MEAN_ANOMALY>13.2246</MEAN_ANOMALY></meanElements><tleParameters><EPHEMERIS_TYPE>0</EPHEMERIS_TYPE><CLASSIFICATION_TYPE>U</CLASSIFICATION_TYPE><NORAD_CAT_ID>24926</NORAD_CAT_ID><ELEMENT_SET_NO>999</ELEMENT_SET_NO><REV_AT_EPOCH>48290</REV_AT_EPOCH><BSTAR>.89179E-4</BSTAR><MEAN_MOTION_DOT>.816E-5</MEAN_MOTION_DOT><MEAN_MOTION_DDOT>0</MEAN_MOTION_DDOT></tleParameters></data></segment></body></omm>
<omm id="CCSDS_OMM_VERS" version="2.0">
<header><CREATION_DATE/><ORIGINATOR/></header><body><segment><metadata><OBJECT_NAME>IRIDIUM 29</OBJECT_NAME><OBJECT_ID>1997-051A</OBJECT_ID><CENTER_NAME>EARTH</CENTER_NAME><REF_FRAME>TEME</REF_FRAME><TIME_SYSTEM>UTC</TIME_SYSTEM><MEAN_ELEMENT_THEORY>SGP4</MEAN_ELEMENT_THEORY></metadata><data><meanElements><EPOCH>2025-01-17T22:37:48.791712</EPOCH><MEAN_MOTION>14.36222281</MEAN_MOTION><ECCENTRICITY>.000214</ECCENTRICITY><INCLINATION>86.3960</INCLINATION><RA_OF_ASC_NODE>206.8450</RA_OF_ASC_NODE><ARG_OF_PERICENTER>85.7977</ARG_OF_PERICENTER><MEAN_ANOMALY>274.3464</MEAN_ANOMALY></meanElements><tleParameters><EPHEMERIS_TYPE>0</EPHEMERIS_TYPE><CLASSIFICATION_TYPE>U</CLASSIFICATION_TYPE><NORAD_CAT_ID>24944</NORAD_CAT_ID><ELEMENT_SET_NO>999</ELEMENT_SET_NO><REV_AT_EPOCH>43170</REV_AT_EPOCH><BSTAR>.27062E-3</BSTAR><MEAN_MOTION_DOT>.809E-5</MEAN_MOTION_DOT><MEAN_MOTION_DDOT>0</MEAN_MOTION_DDOT></tleParameters></data></segment></body></omm>
<omm id="CCSDS_OMM_VERS" version="2.0">
<header><CREATION_DATE/><ORIGINATOR/></header><body><segment><metadata><OBJECT_NAME>IRIDIUM 33</OBJECT_NAME><OBJECT_ID>1997-051C</OBJECT_ID><CENTER_NAME>EARTH</CENTER_NAME><REF_FRAME>TEME</REF_FRAME><TIME_SYSTEM>UTC</TIME_SYSTEM><MEAN_ELEMENT_THEORY>SGP4</MEAN_ELEMENT_THEORY></metadata><data><meanElements><EPOCH>2025-01-17T21:39:52.637184</EPOCH><MEAN_MOTION>14.34725268</MEAN_MOTION><ECCENTRICITY>.0007129</ECCENTRICITY><INCLINATION>86.3876</INCLINATION><RA_OF_ASC_NODE>206.1112</RA_OF_ASC_NODE><ARG_OF_PERICENTER>194.4847</ARG_OF_PERICENTER><MEAN_ANOMALY>165.6146</MEAN_ANOMALY></meanElements><tleParameters><EPHEMERIS_TYPE>0</EPHEMERIS_TYPE><CLASSIFICATION_TYPE>U</CLASSIFICATION_TYPE><NORAD_CAT_ID>24946</NORAD_CAT_ID><ELEMENT_SET_NO>999</ELEMENT_SET_NO><REV_AT_EPOCH>43119</REV_AT_EPOCH><BSTAR>.1808E-3</BSTAR><MEAN_MOTION_DOT>.531E-5</MEAN_MOTION_DOT><MEAN_MOTION_DDOT>0</MEAN_MOTION_DDOT></tleParameters></data></segment></body></omm>
<omm id="CCSDS_OMM_VERS" version="2.0">
<header><CREATION_DATE/><ORIGINATOR/></header><body><segment><metadata><OBJECT_NAME>IRIDIUM 28</OBJECT_NAME><OBJECT_ID>1997-051E</OBJECT_ID><CENTER_NAME>EARTH</CENTER_NAME><REF_FRAME>TEME</REF_FRAME><TIME_SYSTEM>UTC</TIME_SYSTEM><MEAN_ELEMENT_THEORY>SGP4</MEAN_ELEMENT_THEORY></metadata><data><meanElements><EPOCH>2025-01-18T12:01:36.342912</EPOCH><MEAN_MOTION>14.37164195</MEAN_MOTION><ECCENTRICITY>.0001803</ECCENTRICITY><INCLINATION>86.3969</INCLINATION><RA_OF_ASC_NODE>204.2132</RA_OF_ASC_NODE><ARG_OF_PERICENTER>102.0783</ARG_OF_PERICENTER><MEAN_ANOMALY>258.0616</MEAN_ANOMALY></meanElements><tleParameters><EPHEMERIS_TYPE>0</EPHEMERIS_TYPE><CLASSIFICATION_TYPE>U</CLASSIFICATION_TYPE><NORAD_CAT_ID>24948</NORAD_CAT_ID><ELEMENT_SET_NO>999</ELEMENT_SET_NO><REV_AT_EPOCH>43241</REV_AT_EPOCH><BSTAR>.23928E-3</BSTAR><MEAN_MOTION_DOT>.731E-5</MEAN_MOTION_DOT><MEAN_MOTION_DDOT>0</MEAN_MOTION_DDOT></tleParameters></data></segment></body></omm>

</ndm>
